{
  "type": "FeatureCollection",
  "features": [
    {
      "type": "Feature",
      "properties": {
        "norad_id": 55973,
        "name": "TIANMU-1 03",
        "group": "weather",
        "lat": -49.26712772483745,
        "lon": -32.685976861498865,
        "alt_km": 452.56589957836695,
        "timestamp": "2025-12-19T06:59:43.546836+00:00",
        "meta_object_name": "TIANMU-1 03",
        "meta_object_id": "2023-039A",
        "meta_epoch": "2025-12-18T23:46:05.413152",
        "meta_mean_motion": 15.4110024,
        "meta_eccentricity": 0.00041264,
        "meta_inclination": 97.5101,
        "meta_ra_of_asc_node": 155.8169,
        "meta_arg_of_pericenter": 43.2907,
        "meta_mean_anomaly": 316.8663,
        "meta_ephemeris_type": 0,
        "meta_classification_type": "U",
        "meta_norad_cat_id": 55973,
        "meta_element_set_no": 999,
        "meta_rev_at_epoch": 15302,
        "meta_bstar": 0.00030406323,
        "meta_mean_motion_dot": 0.000125,
        "meta_mean_motion_ddot": 0,
        "tle_line1": "1 55973U 23039A   25352.99034043  .00012500  00000+0  30406-3 0  9998",
        "tle_line2": "2 55973  97.5101 155.8169 0004126  43.2907 316.8663 15.41100240153029"
      },
      "geometry": {
        "type": "Point",
        "coordinates": [
          -32.685976861498865,
          -49.26712772483745
        ]
      }
    },
    {
      "type": "Feature",
      "properties": {
        "norad_id": 55974,
        "name": "TIANMU-1 04",
        "group": "weather",
        "lat": -8.382079952632095,
        "lon": 156.42756183743387,
        "alt_km": 443.6509562542633,
        "timestamp": "2025-12-19T06:59:43.546853+00:00",
        "meta_object_name": "TIANMU-1 04",
        "meta_object_id": "2023-039B",
        "meta_epoch": "2025-12-18T23:14:31.310016",
        "meta_mean_motion": 15.41440198,
        "meta_eccentricity": 0.00047654,
        "meta_inclination": 97.5034,
        "meta_ra_of_asc_node": 154.9828,
        "meta_arg_of_pericenter": 37.2951,
        "meta_mean_anomaly": 322.8626,
        "meta_ephemeris_type": 0,
        "meta_classification_type": "U",
        "meta_norad_cat_id": 55974,
        "meta_element_set_no": 999,
        "meta_rev_at_epoch": 15302,
        "meta_bstar": 0.00030037031,
        "meta_mean_motion_dot": 0.00012489,
        "meta_mean_motion_ddot": 0,
        "tle_line1": "1 55974U 23039B   25352.96841794  .00012489  00000+0  30037-3 0  9991",
        "tle_line2": "2 55974  97.5034 154.9828 0004765  37.2951 322.8626 15.41440198153023"
      },
      "geometry": {
        "type": "Point",
        "coordinates": [
          156.42756183743387,
          -8.382079952632095
        ]
      }
    },
    {
      "type": "Feature",
      "properties": {
        "norad_id": 55975,
        "name": "TIANMU-1 05",
        "group": "weather",
        "lat": 14.347150756823591,
        "lon": 153.87421457754652,
        "alt_km": 442.0188375940743,
        "timestamp": "2025-12-19T06:59:43.546869+00:00",
        "meta_object_name": "TIANMU-1 05",
        "meta_object_id": "2023-039C",
        "meta_epoch": "2025-12-18T23:08:27.364704",
        "meta_mean_motion": 15.41056354,
        "meta_eccentricity": 0.00041908,
        "meta_inclination": 97.508,
        "meta_ra_of_asc_node": 155.4711,
        "meta_arg_of_pericenter": 61.0627,
        "meta_mean_anomaly": 299.1039,
        "meta_ephemeris_type": 0,
        "meta_classification_type": "U",
        "meta_norad_cat_id": 55975,
        "meta_element_set_no": 999,
        "meta_rev_at_epoch": 15300,
        "meta_bstar": 0.00029323617,
        "meta_mean_motion_dot": 0.00012034,
        "meta_mean_motion_ddot": 0,
        "tle_line1": "1 55975U 23039C   25352.96420561  .00012034  00000+0  29324-3 0  9990",
        "tle_line2": "2 55975  97.5080 155.4711 0004190  61.0627 299.1039 15.41056354153008"
      },
      "geometry": {
        "type": "Point",
        "coordinates": [
          153.87421457754652,
          14.347150756823591
        ]
      }
    },
    {
      "type": "Feature",
      "properties": {
        "norad_id": 55976,
        "name": "TIANMU-1 06",
        "group": "weather",
        "lat": -19.12310210485123,
        "lon": 158.89932065932769,
        "alt_km": 446.0465136499761,
        "timestamp": "2025-12-19T06:59:43.546885+00:00",
        "meta_object_name": "TIANMU-1 06",
        "meta_object_id": "2023-039D",
        "meta_epoch": "2025-12-18T23:17:21.156864",
        "meta_mean_motion": 15.41491867,
        "meta_eccentricity": 0.00044605,
        "meta_inclination": 97.5091,
        "meta_ra_of_asc_node": 155.9477,
        "meta_arg_of_pericenter": 55.6607,
        "meta_mean_anomaly": 304.5061,
        "meta_ephemeris_type": 0,
        "meta_classification_type": "U",
        "meta_norad_cat_id": 55976,
        "meta_element_set_no": 999,
        "meta_rev_at_epoch": 15302,
        "meta_bstar": 0.00029959071,
        "meta_mean_motion_dot": 0.00012477,
        "meta_mean_motion_ddot": 0,
        "tle_line1": "1 55976U 23039D   25352.97038376  .00012477  00000+0  29959-3 0  9996",
        "tle_line2": "2 55976  97.5091 155.9477 0004460  55.6607 304.5061 15.41491867153022"
      },
      "geometry": {
        "type": "Point",
        "coordinates": [
          158.89932065932769,
          -19.12310210485123
        ]
      }
    },
    {
      "type": "Feature",
      "properties": {
        "norad_id": 56232,
        "name": "FENGYUN 3G",
        "group": "weather",
        "lat": 32.58452222377437,
        "lon": -133.8961645109385,
        "alt_km": 404.90946058222835,
        "timestamp": "2025-12-19T06:59:43.546901+00:00",
        "meta_object_name": "FENGYUN 3G",
        "meta_object_id": "2023-055A",
        "meta_epoch": "2025-12-18T23:05:15.512640",
        "meta_mean_motion": 15.54006289,
        "meta_eccentricity": 0.00093009,
        "meta_inclination": 49.9921,
        "meta_ra_of_asc_node": 195.3371,
        "meta_arg_of_pericenter": 176.6524,
        "meta_mean_anomaly": 183.4508,
        "meta_ephemeris_type": 0,
        "meta_classification_type": "U",
        "meta_norad_cat_id": 56232,
        "meta_element_set_no": 999,
        "meta_rev_at_epoch": 15199,
        "meta_bstar": 0.00039250893,
        "meta_mean_motion_dot": 0.00025554,
        "meta_mean_motion_ddot": 0,
        "tle_line1": "1 56232U 23055A   25352.96198510  .00025554  00000+0  39251-3 0  9992",
        "tle_line2": "2 56232  49.9921 195.3371 0009300 176.6524 183.4508 15.54006289151990"
      },
      "geometry": {
        "type": "Point",
        "coordinates": [
          -133.8961645109385,
          32.58452222377437
        ]
      }
    },
    {
      "type": "Feature",
      "properties": {
        "norad_id": 57166,
        "name": "METEOR-M2 3",
        "group": "weather",
        "lat": -24.152013213152323,
        "lon": 50.6242375151097,
        "alt_km": 814.7574971189906,
        "timestamp": "2025-12-19T06:59:43.546918+00:00",
        "meta_object_name": "METEOR-M2 3",
        "meta_object_id": "2023-091A",
        "meta_epoch": "2025-12-18T22:40:41.918304",
        "meta_mean_motion": 14.24026793,
        "meta_eccentricity": 0.00035524,
        "meta_inclination": 98.6371,
        "meta_ra_of_asc_node": 46.3757,
        "meta_arg_of_pericenter": 350.4382,
        "meta_mean_anomaly": 9.6728,
        "meta_ephemeris_type": 0,
        "meta_classification_type": "U",
        "meta_norad_cat_id": 57166,
        "meta_element_set_no": 999,
        "meta_rev_at_epoch": 12886,
        "meta_bstar": 2.667535e-05,
        "meta_mean_motion_dot": 1.8e-07,
        "meta_mean_motion_ddot": 0,
        "tle_line1": "1 57166U 23091A   25352.94492961  .00000018  00000+0  26675-4 0  9999",
        "tle_line2": "2 57166  98.6371  46.3757 0003552 350.4382   9.6728 14.24026793128868"
      },
      "geometry": {
        "type": "Point",
        "coordinates": [
          50.6242375151097,
          -24.152013213152323
        ]
      }
    },
    {
      "type": "Feature",
      "properties": {
        "norad_id": 57399,
        "name": "TIANMU-1 07",
        "group": "weather",
        "lat": 81.81642475226614,
        "lon": -74.15270480365754,
        "alt_km": 470.6459351372023,
        "timestamp": "2025-12-19T06:59:43.546935+00:00",
        "meta_object_name": "TIANMU-1 07",
        "meta_object_id": "2023-101A",
        "meta_epoch": "2025-12-18T22:43:46.499808",
        "meta_mean_motion": 15.28157568,
        "meta_eccentricity": 0.00053638,
        "meta_inclination": 97.2871,
        "meta_ra_of_asc_node": 42.6604,
        "meta_arg_of_pericenter": 65.9991,
        "meta_mean_anomaly": 294.181,
        "meta_ephemeris_type": 0,
        "meta_classification_type": "U",
        "meta_norad_cat_id": 57399,
        "meta_element_set_no": 999,
        "meta_rev_at_epoch": 13410,
        "meta_bstar": 0.00022194891,
        "meta_mean_motion_dot": 6.021e-05,
        "meta_mean_motion_ddot": 0,
        "tle_line1": "1 57399U 23101A   25352.94706597  .00006021  00000+0  22195-3 0  9994",
        "tle_line2": "2 57399  97.2871  42.6604 0005363  65.9991 294.1810 15.28157568134109"
      },
      "geometry": {
        "type": "Point",
        "coordinates": [
          -74.15270480365754,
          81.81642475226614
        ]
      }
    }
  ]
}